NORAD_CAT_ID,OBJECT_NAME,OBJECT_TYPE,EPOCH,MEAN_MOTION,ECCENTRICITY,INCLINATION,RA_OF_ASC_NODE,ARG_OF_PERICENTER,MEAN_ANOMALY,BSTAR,MEAN_MOTION_DOT,MEAN_MOTION_DDOT,TLE_LINE0,TLE_LINE1,TLE_LINE2,SEMIMAJOR_AXIS,PERIOD,APOGEE,PERIGEE,DECAYED
51966.0,STARLINK-3699,PAYLOAD,2024-04-13 18:49:06,15.06399039,0.000116,53.0544,270.3784,77.613,282.4988,0.00015237,1.989e-05,0.0,0 STARLINK-3699,1 51966U 22025L   24104.78410240  .00001989  00000-0  15237-3 0  9993,2 51966  53.0544 270.3784 0001160  77.6130 282.4988 15.06399039116186,6925.352,95.592,548.02,546.413,0.0
51966.0,STARLINK-3699,PAYLOAD,2024-04-14 17:06:39,15.06406254,0.0001725,53.0553,266.2112,55.8386,304.2766,0.00025595,3.533e-05,0.0,0 STARLINK-3699,1 51966U 22025L   24105.71295750  .00003533  00000-0  25595-3 0  9999,2 51966  53.0553 266.2112 0001725  55.8386 304.2766 15.06406254116324,6925.329,95.592,548.389,546.0,0.0
51966.0,STARLINK-3699,PAYLOAD,2024-04-15 13:48:38,15.06433451,0.0001258,53.0543,262.342,51.6483,308.4619,-0.00077029,-0.00011747,0.0,0 STARLINK-3699,1 51966U 22025L   24106.57544832 -.00011747  00000-0 -77029-3 0  9999,2 51966  53.0543 262.3420 0001258  51.6483 308.4619 15.06433451116451,6925.246,95.59,547.982,546.24,0.0
51966.0,STARLINK-3699,PAYLOAD,2024-04-15 20:10:49,15.0640949,0.0001508,53.0544,261.147,80.4552,279.6608,0.0002517,3.47e-05,0.0,0 STARLINK-3699,1 51966U 22025L   24106.84084755  .00003470  00000-0  25170-3 0  9994,2 51966  53.0544 261.1470 0001508  80.4552 279.6608 15.06409490117587,6925.319,95.592,548.229,546.14,0.0
51966.0,STARLINK-3699,PAYLOAD,2024-04-16 13:41:45,15.06400333,0.0001449,53.054,257.8691,102.3057,257.8094,3.8551e-05,2.93e-06,0.0,0 STARLINK-3699,1 51966U 22025L   24107.57066634  .00000293  00000-0  38551-4 0  9999,2 51966  53.0540 257.8691 0001449 102.3057 257.8094 15.06400333117694,6925.348,95.592,548.216,546.209,0.0
51966.0,STARLINK-3699,PAYLOAD,2024-04-16 16:52:49,15.06409882,0.000131,53.0541,257.2752,94.3652,265.7487,0.00018739,2.512e-05,0.0,0 STARLINK-3699,1 51966U 22025L   24107.70335578  .00002512  00000-0  18739-3 0  9991,2 51966  53.0541 257.2752 0001310  94.3652 265.7487 15.06409882117710,6925.318,95.592,548.09,546.276,0.0
51966.0,STARLINK-3699,PAYLOAD,2024-04-17 13:34:51,15.06386186,0.0001721,53.0537,253.4003,101.6552,258.463,-0.00010483,-1.842e-05,0.0,0 STARLINK-3699,1 51966U 22025L   24108.56587695 -.00001842  00000-0 -10483-3 0  9990,2 51966  53.0537 253.4003 0001721 101.6552 258.4630 15.06386186117843,6925.391,95.593,548.448,546.064,0.0
51966.0,STARLINK-3699,PAYLOAD,2024-04-17 16:45:56,15.06388426,0.0001524,53.0536,252.8047,92.0776,268.0388,-6.691e-05,-1.278e-05,0.0,0 STARLINK-3699,1 51966U 22025L   24108.69857080 -.00001278  00000-0 -66910-4 0  9992,2 51966  53.0536 252.8047 0001524  92.0776 268.0388 15.06388426116772,6925.384,95.593,548.304,546.194,0.0
51966.0,STARLINK-3699,PAYLOAD,2024-04-18 13:27:57,15.06401375,0.0001489,53.0537,248.9322,100.1642,259.9515,0.00025705,3.549e-05,0.0,0 STARLINK-3699,1 51966U 22025L   24109.56107900  .00003549  00000-0  25705-3 0  9995,2 51966  53.0537 248.9322 0001489 100.1642 259.9515 15.06401375116903,6925.344,95.592,548.241,546.178,0.0
51966.0,STARLINK-3699,PAYLOAD,2024-04-18 16:39:02,15.0640138,0.0004321,53.0544,248.3389,35.4533,324.6743,0.00040174,5.707e-05,0.0,0 STARLINK-3699,1 51966U 22025L   24109.69378308  .00005707  00000-0  40174-3 0  9996,2 51966  53.0544 248.3389 0004321  35.4533 324.6743 15.06401380118018,6925.344,95.592,550.202,544.217,0.0
51966.0,STARLINK-3699,PAYLOAD,2024-04-19 13:21:02,15.06403293,0.0002081,53.0544,244.4658,63.1182,297.0019,0.00028412,3.953e-05,0.0,0 STARLINK-3699,1 51966U 22025L   24110.55628189  .00003953  00000-0  28412-3 0  9990,2 51966  53.0544 244.4658 0002081  63.1182 297.0019 15.06403293117050,6925.338,95.592,548.645,545.762,0.0
51966.0,STARLINK-3699,PAYLOAD,2024-04-19 16:32:06,15.06427948,0.0001468,53.0542,243.8691,103.9593,256.156,0.00079225,0.00011547,0.0,0 STARLINK-3699,1 51966U 22025L   24110.68896706  .00011547  00000-0  79225-3 0  9992,2 51966  53.0542 243.8691 0001468 103.9593 256.1560 15.06427948118168,6925.263,95.59,548.145,546.111,0.0
51966.0,STARLINK-3699,PAYLOAD,2024-04-20 13:14:07,15.06349285,0.0001635,53.0544,239.9993,42.4347,317.6769,-0.0016062,-0.00024093,0.0,0 STARLINK-3699,1 51966U 22025L   24111.55147976 -.00024093  00000-0 -16062-2 0  9998,2 51966  53.0544 239.9993 0001635  42.4347 317.6769 15.06349285118296,6925.504,95.595,548.501,546.237,0.0
51966.0,STARLINK-3699,PAYLOAD,2024-04-20 14:49:40,15.06350876,0.000138,53.0547,239.6983,68.1951,291.9185,-0.0014669,-0.00022035,0.0,0 STARLINK-3699,1 51966U 22025L   24111.61782678 -.00022035  00000-0 -14669-2 0  9994,2 51966  53.0547 239.6983 0001380  68.1951 291.9185 15.06350876117213,6925.499,95.595,548.32,546.408,0.0
51966.0,STARLINK-3699,PAYLOAD,2024-04-21 13:07:14,15.06407704,0.0001665,53.0561,235.5371,98.203,261.9147,0.00060809,8.789e-05,0.0,0 STARLINK-3699,1 51966U 22025L   24112.54669265  .00008789  00000-0  60809-3 0  9999,2 51966  53.0561 235.5371 0001665  98.2030 261.9147 15.06407704117356,6925.325,95.592,548.343,546.037,0.0
51966.0,STARLINK-3699,PAYLOAD,2024-04-21 14:42:46,15.06412869,0.000174,53.0556,235.2389,109.3579,250.7598,0.00075224,0.00010945,0.0,0 STARLINK-3699,1 51966U 22025L   24112.61303794  .00010945  00000-0  75224-3 0  9993,2 51966  53.0556 235.2389 0001740 109.3579 250.7598 15.06412869117367,6925.309,95.591,548.379,545.969,0.0
51966.0,STARLINK-3699,PAYLOAD,2024-04-22 17:46:56,15.0641169,0.000131,53.0545,230.1601,87.3284,272.7854,0.00064807,9.388e-05,0.0,0 STARLINK-3699,1 51966U 22025L   24113.74093582  .00009388  00000-0  64807-3 0  9993,2 51966  53.0545 230.1601 0001310  87.3284 272.7854 15.06411690118627,6925.313,95.591,548.085,546.271,0.0
51966.0,STARLINK-3699,PAYLOAD,2024-04-23 12:53:25,15.064065,0.00015,53.0551,226.5955,97.2982,262.8177,0.00020423,2.762e-05,0.0,0 STARLINK-3699,1 51966U 22025L   24114.53709536  .00002762  00000-0  20423-3 0  9999,2 51966  53.0551 226.5955 0001500  97.2982 262.8177 15.06406500118746,6925.329,95.592,548.232,546.155,0.0
51966.0,STARLINK-3699,PAYLOAD,2024-04-23 14:28:57,15.06416561,0.0001303,53.0547,226.3004,94.6649,265.4489,0.00049596,7.117e-05,0.0,0 STARLINK-3699,1 51966U 22025L   24114.60343976  .00007117  00000-0  49596-3 0  9990,2 51966  53.0547 226.3004 0001303  94.6649 265.4489 15.06416561117669,6925.298,95.591,548.065,546.26,0.0
51966.0,STARLINK-3699,PAYLOAD,2024-04-24 12:46:31,15.06392061,0.0001473,53.0539,222.1224,106.6771,253.438,3.582e-05,2.52e-06,0.0,0 STARLINK-3699,1 51966U 22025L   24115.53230457  .00000252  00000-0  35820-4 0  9991,2 51966  53.0539 222.1224 0001473 106.6771 253.4380 15.06392061118897,6925.373,95.593,548.258,546.218,0.0
51966.0,STARLINK-3699,PAYLOAD,2024-04-24 14:22:03,15.06398706,0.0001379,53.0548,221.8248,101.5624,258.552,0.00026972,3.738e-05,0.0,0 STARLINK-3699,1 51966U 22025L   24115.59865049  .00003738  00000-0  26972-3 0  9997,2 51966  53.0548 221.8248 0001379 101.5624 258.5520 15.06398706117810,6925.353,95.592,548.173,546.263,0.0
51966.0,STARLINK-3699,PAYLOAD,2024-04-25 14:15:09,15.06405987,0.0001831,53.0559,217.3629,55.6912,304.425,0.0007498,0.00010906,0.0,0 STARLINK-3699,1 51966U 22025L   24116.59386099  .00010906  00000-0  74980-3 0  9998,2 51966  53.0559 217.3629 0001831  55.6912 304.4250 15.06405987117964,6925.33,95.592,548.463,545.927,0.0
51966.0,STARLINK-3699,PAYLOAD,2024-04-26 12:32:42,15.06402511,0.000146,53.0536,213.1967,90.874,269.2416,0.00037843,5.36e-05,0.0,0 STARLINK-3699,1 51966U 22025L   24117.52271691  .00005360  00000-0  37843-3 0  9998,2 51966  53.0536 213.1967 0001460  90.8740 269.2416 15.06402511119195,6925.341,95.592,548.217,546.195,0.0
51966.0,STARLINK-3699,PAYLOAD,2024-04-26 14:08:15,15.06409731,0.0001459,53.054,212.8997,83.7865,276.329,0.00070613,0.00010255,0.0,0 STARLINK-3699,1 51966U 22025L   24117.58906262  .00010255  00000-0  70613-3 0  9994,2 51966  53.0540 212.8997 0001459  83.7865 276.3290 15.06409731118117,6925.319,95.592,548.194,546.173,0.0
51966.0,STARLINK-3699,PAYLOAD,2024-04-27 12:25:46,15.06430766,0.000136,53.0532,208.7278,92.1626,267.9519,0.001519,0.00022435,0.0,0 STARLINK-3699,1 51966U 22025L   24118.51790476  .00022435  00000-0  15190-2 0  9997,2 51966  53.0532 208.7278 0001360  92.1626 267.9519 15.06430766118251,6925.254,95.59,548.061,546.177,0.0
51966.0,STARLINK-3699,PAYLOAD,2024-04-28 12:18:53,15.06375776,0.0001612,53.054,204.2605,72.1526,287.9639,-0.00062113,-9.515e-05,0.0,0 STARLINK-3699,1 51966U 22025L   24119.51311982 -.00009515  00000-0 -62113-3 0  9993,2 51966  53.0540 204.2605 0001612  72.1526 287.9639 15.06375776119493,6925.423,95.594,548.404,546.171,0.0
51966.0,STARLINK-3699,PAYLOAD,2024-04-29 05:49:50,15.06390977,0.0001664,53.0549,200.9835,71.0603,289.0566,0.00060642,8.76e-05,0.0,0 STARLINK-3699,1 51966U 22025L   24120.24294179  .00008760  00000-0  60642-3 0  9997,2 51966  53.0549 200.9835 0001664  71.0603 289.0566 15.06390977119606,6925.376,95.593,548.394,546.089,0.0
51966.0,STARLINK-3699,PAYLOAD,2024-04-29 12:11:59,15.06414812,0.0001672,53.0539,199.7919,62.5295,297.5864,0.0015634,0.00023091,0.0,0 STARLINK-3699,1 51966U 22025L   24120.50832868  .00023091  00000-0  15634-2 0  9993,2 51966  53.0539 199.7919 0001672  62.5295 297.5864 15.06414812119648,6925.303,95.591,548.326,546.01,0.0
51966.0,STARLINK-3699,PAYLOAD,2024-04-29 21:45:13,15.06416906,0.0001663,53.0536,198.0026,58.0603,302.0547,0.00079824,0.00011634,0.0,0 STARLINK-3699,1 51966U 22025L   24120.90640638  .00011634  00000-0  79824-3 0  9991,2 51966  53.0536 198.0026 0001663  58.0603 302.0547 15.06416906118611,6925.297,95.591,548.313,546.01,0.0
51966.0,STARLINK-3699,PAYLOAD,2024-04-30 05:42:55,15.06414236,0.000172,53.0541,196.5165,66.0918,294.0251,0.00069267,0.00010055,0.0,0 STARLINK-3699,1 51966U 22025L   24121.23813957  .00010055  00000-0  69267-3 0  9990,2 51966  53.0541 196.5165 0001720  66.0918 294.0251 15.06414236119758,6925.305,95.591,548.361,545.979,0.0
